{
    "links": {
        "self": "http://www.neowsapp.com/rest/v1/neo/3163747?api_key=iIulBulltgU6a56xZRHN4H3l9WmuAYTsLGpBGhQ2"
    },
    "id": "3163747",
    "neo_reference_id": "3163747",
    "name": "(2003 UD5)",
    "designation": "2003 UD5",
    "nasa_jpl_url": "http://ssd.jpl.nasa.gov/sbdb.cgi?sstr=3163747",
    "absolute_magnitude_h": 23.3,
    "estimated_diameter": {
        "kilometers": {
            "estimated_diameter_min": 0.058150704,
            "estimated_diameter_max": 0.130028927
        },
        "meters": {
            "estimated_diameter_min": 58.1507039646,
            "estimated_diameter_max": 130.0289270043
        },
        "miles": {
            "estimated_diameter_min": 0.0361331611,
            "estimated_diameter_max": 0.0807962044
        },
        "feet": {
            "estimated_diameter_min": 190.7831555951,
            "estimated_diameter_max": 426.6041048727
        }
    },
    "is_potentially_hazardous_asteroid": false,
    "close_approach_data": [
        {
            "close_approach_date": "2003-11-02",
            "close_approach_date_full": "2003-Nov-02 10:18",
            "epoch_date_close_approach": 1067768280000,
            "relative_velocity": {
                "kilometers_per_second": "7.4156108054",
                "kilometers_per_hour": "26696.198899338",
                "miles_per_hour": "16587.9798105359"
            },
            "miss_distance": {
                "astronomical": "0.0472352775",
                "lunar": "18.3745229475",
                "kilometers": "7066296.902858925",
                "miles": "4390793.291646165"
            },
            "orbiting_body": "Earth"
        },
        {
            "close_approach_date": "2082-09-19",
            "close_approach_date_full": "2082-Sep-19 17:06",
            "epoch_date_close_approach": 3557063160000,
            "relative_velocity": {
                "kilometers_per_second": "19.9814517177",
                "kilometers_per_hour": "71933.2261836023",
                "miles_per_hour": "44696.50934725"
            },
            "miss_distance": {
                "astronomical": "0.4354988759",
                "lunar": "169.4090627251",
                "kilometers": "65149704.222034333",
                "miles": "40482149.0213784754"
            },
            "orbiting_body": "Earth"
        }
    ],
    "orbital_data": {
        "orbit_id": "22",
        "orbit_determination_date": "2017-04-06 09:13:39",
        "first_observation_date": "2003-10-18",
        "last_observation_date": "2003-11-20",
        "data_arc_in_days": 33,
        "observations_used": 115,
        "orbit_uncertainty": "7",
        "minimum_orbit_intersection": ".0395157",
        "jupiter_tisserand_invariant": "3.326",
        "epoch_osculation": "2459000.5",
        "eccentricity": ".56284225262656",
        "semi_major_axis": "2.34190628457365",
        "inclination": "5.349295549870067",
        "ascending_node_longitude": "32.44995766189871",
        "orbital_period": "1309.039329500105",
        "perihelion_distance": "1.023782475923919",
        "perihelion_argument": "17.58324074475438",
        "aphelion_distance": "3.660030093223381",
        "perihelion_time": "2459499.532276703738",
        "mean_anomaly": "222.7607165309915",
        "mean_motion": ".275010835722924",
        "equinox": "J2000",
        "orbit_class": {
            "orbit_class_type": "AMO",
            "orbit_class_description": "Near-Earth asteroid orbits similar to that of 1221 Amor",
            "orbit_class_range": "1.017 AU < q (perihelion) < 1.3 AU"
        }
    },
    "is_sentry_object": false
}